STARS (KUKAI)           
1 33498U 09002G   26169.55694296  .00002327  00000+0  21424-3 0  9997
2 33498  98.1556 116.9216 0008885 154.8620 205.3034 14.95759911938686
KKS-1 (KISEKI)          
1 33499U 09002H   26169.60592050  .00001016  00000+0  13150-3 0  9990
2 33499  98.1189  92.0707 0006465 290.4012  69.6506 14.83127144936409
UK-DMC 2                
1 35683U 09041C   26169.71720594 -.00000199  00000+0 -21756-4 0  9993
2 35683  97.8846 304.6459 0001127  81.0013 279.1324 14.76036308906791
OCEANSAT-2              
1 35931U 09051A   26169.70074817 -.00000170  00000+0 -90220-4 0  9990
2 35931  98.2323 156.4013 0015324 231.3836 128.5960 13.99664072879542
SWISSCUBE               
1 35932U 09051B   26169.26333948  .00000756  00000+0  15894-3 0  9996
2 35932  98.4034  77.1704 0006031 199.2833 160.8141 14.62483386889318
BEESAT-1                
1 35933U 09051C   26169.68405162  .00000636  00000+0  13739-3 0  9994
2 35933  98.3962  77.2309 0004309 211.2918 148.8026 14.61722602889409
ITUPSAT1                
1 35935U 09051E   26169.19666220  .00000591  00000+0  13197-3 0  9994
2 35935  98.4047  75.9267 0006285 230.1057 129.9590 14.60442029888881
DMSP 5D-3 F18 (USA 210) 
1 35951U 09057A   26169.69682610  .00000219  00000+0  13671-3 0  9998
2 35951  98.9038 150.4626 0009924 244.7269 115.2876 14.14897572859802
PROBA-2                 
1 36037U 09059B   26169.06577994  .00000129  00000+0  40500-4 0  9997
2 36037  98.2450 352.4063 0011948 279.1293  80.8552 14.54862763881650
YAOGAN-7                
1 36110U 09069A   26169.64587405  .00000375  00000+0  59050-4 0  9995
2 36110  98.0070  55.5039 0025487  37.2065 323.0906 14.78011211889849
XIWANG-1 (HOPE-1)       
1 36122U 09072B   26169.68786532  .00000218  00000+0  68803-3 0  9999
2 36122 100.4033 123.4966 0006887 227.6356 132.4175 13.16439975793200
COSMOS 2463             
1 36519U 10017A   26169.66047159  .00000054  00000+0  42100-4 0  9994
2 36519  82.9605 248.6234 0037387 124.9268 352.8101 13.71665779808137
CARTOSAT-2B             
1 36795U 10035A   26169.69308418  .00000360  00000+0  56303-4 0  9991
2 36795  97.9946 220.2335 0011261 178.9082 181.2155 14.78662321860073
TISAT 1                 
1 36799U 10035E   26169.29299463  .00015546  00000+0  50955-3 0  9998
2 36799  98.0713 115.9399 0001545 166.4985 193.6296 15.31742601867877
YAOGAN-10               
1 36834U 10038A   26169.77077374  .00001396  00000+0  16855-3 0  9998
2 36834  97.8968 193.1624 0001692  88.5641 358.9304 14.85352875857447
SHIJIAN-6 04B (SJ-6 04B)
1 37180U 10051B   26169.75816354  .00001110  00000+0  95866-4 0  9999
2 37180  97.8681 175.1847 0007763 309.2473  50.8060 14.99317725855919
FENGYUN 3B              
1 37214U 10059A   26169.72770185 -.00000102  00000+0 -29551-4 0  9993
2 37214  98.9612 215.7492 0021974 179.6110 290.1335 14.14840791807649
COSMO-SKYMED 4          
1 37216U 10060A   26169.72645690  .00000137  00000+0  23768-4 0  9999
2 37216  97.8882 353.3032 0001378  82.7885 277.3485 14.82153315844790
O/OREOS (USA 219)       
1 37224U 10062C   26169.13372697  .00001822  00000+0  17759-3 0  9993
2 37224  71.9713  78.1955 0012568  61.0005 299.2424 14.93748266116782
RESOURCESAT-2           
1 37387U 11015A   26169.63742617  .00000081  00000+0  57062-4 0  9998
2 37387  98.7644 237.0693 0010245 250.8490 109.1579 14.21606885786383
YOUTHSAT                
1 37388U 11015B   26169.72238528  .00000130  00000+0  72227-4 0  9995
2 37388  98.3682 143.7072 0014106 342.5283 191.2855 14.25630785787857
APRIZESAT 6             
1 37793U 11044F   26169.70424558  .00000606  00000+0  92657-4 0  9992
2 37793  98.2362  80.2348 0044486  81.3364 335.6808 14.76917857797378
JUGNU                   
1 37839U 11058B   26169.70142228  .00000394  00000+0  66297-4 0  9994
2 37839  19.9619 299.2304 0018627  92.8225 295.0564 14.13777162759245
SRMSAT                  
1 37841U 11058D   26169.37117840  .00000354  00000+0  48168-4 0  9995
2 37841  19.9726  52.3001 0011756 216.7081 303.9733 14.11575778757985
SUOMI NPP               
1 37849U 11061A   26169.67977859  .00000055  00000+0  47195-4 0  9991
2 37849  98.7953 110.5456 0001453   3.1761 356.9424 14.19517654758654
YAOGAN-12               
1 37875U 11066B   26169.70778991  .00005661  00000+0  21853-3 0  9995
2 37875  97.1133 208.2050 0008882 210.9459 149.1258 15.26617362812278
