OBJECT_NAME,OBJECT_ID,EPOCH,MEAN_MOTION,ECCENTRICITY,INCLINATION,RA_OF_ASC_NODE,ARG_OF_PERICENTER,MEAN_ANOMALY,EPHEMERIS_TYPE,CLASSIFICATION_TYPE,NORAD_CAT_ID,ELEMENT_SET_NO,REV_AT_EPOCH,BSTAR,MEAN_MOTION_DOT,MEAN_MOTION_DDOT
STARS (KUKAI),2009-002G,2026-06-18T13:21:59.871744,14.95759911,.0008885,98.1556,116.9216,154.8620,205.3034,0,U,33498,999,93868,.21424E-3,.2327E-4,0
KKS-1 (KISEKI),2009-002H,2026-06-18T14:32:31.531200,14.83127144,.0006465,98.1189,92.0707,290.4012,69.6506,0,U,33499,999,93640,.1315E-3,.1016E-4,0
UK-DMC 2,2009-041C,2026-06-18T17:12:46.593216,14.76036308,.0001127,97.8846,304.6459,81.0013,279.1324,0,U,35683,999,90679,-.21756E-4,-.199E-5,0
OCEANSAT-2,2009-051A,2026-06-18T16:49:04.641888,13.99664072,.0015324,98.2323,156.4013,231.3836,128.5960,0,U,35931,999,87954,-.9022E-4,-.17E-5,0
SWISSCUBE,2009-051B,2026-06-18T06:19:12.531072,14.62483386,.0006031,98.4034,77.1704,199.2833,160.8141,0,U,35932,999,88931,.15894E-3,.756E-5,0
BEESAT-1,2009-051C,2026-06-18T16:25:02.059968,14.61722602,.0004309,98.3962,77.2309,211.2918,148.8026,0,U,35933,999,88940,.13739E-3,.636E-5,0
ITUPSAT1,2009-051E,2026-06-18T04:43:11.614080,14.60442029,.00062858,98.4047,75.9267,230.1057,129.9590,0,U,35935,999,88888,.13197175E-3,.591E-5,0
DMSP 5D-3 F18 (USA 210),2009-057A,2026-06-18T16:43:25.775040,14.14897572,.0009924,98.9038,150.4626,244.7269,115.2876,0,U,35951,999,85980,.13671E-3,.219E-5,0
PROBA-2,2009-059B,2026-06-18T01:34:43.386816,14.54862763,.00119481,98.2450,352.4063,279.1293,80.8552,0,U,36037,999,88165,.40499828E-4,.129E-5,0
YAOGAN-7,2009-069A,2026-06-18T15:30:03.517920,14.78011211,.0025487,98.0070,55.5039,37.2065,323.0906,0,U,36110,999,88984,.5905E-4,.375E-5,0
XIWANG-1 (HOPE-1),2009-072B,2026-06-18T16:30:31.563648,13.16439975,.0006887,100.4033,123.4966,227.6356,132.4175,0,U,36122,999,79320,.68803E-3,.218E-5,0
COSMOS 2463,2010-017A,2026-06-18T15:51:04.745376,13.71665779,.0037387,82.9605,248.6234,124.9268,352.8101,0,U,36519,999,80813,.421E-4,.54E-6,0
CARTOSAT-2B,2010-035A,2026-06-18T16:38:02.473152,14.78662321,.0011261,97.9946,220.2335,178.9082,181.2155,0,U,36795,999,86007,.56303E-4,.36E-5,0
TISAT 1,2010-035E,2026-06-18T07:01:54.736032,15.31742601,.0001545,98.0713,115.9399,166.4985,193.6296,0,U,36799,999,86787,.50955E-3,.15546E-3,0
YAOGAN-10,2010-038A,2026-06-18T18:29:54.851136,14.85352875,.0001692,97.8968,193.1624,88.5641,358.9304,0,U,36834,999,85744,.16855E-3,.1396E-4,0
SHIJIAN-6 04B (SJ-6 04B),2010-051B,2026-06-18T18:11:45.329856,14.99317725,.0007763,97.8681,175.1847,309.2473,50.8060,0,U,37180,999,85591,.95866E-4,.111E-4,0
FENGYUN 3B,2010-059A,2026-06-18T17:27:53.439840,14.14840791,.0021974,98.9612,215.7492,179.6110,290.1335,0,U,37214,999,80764,-.29551E-4,-.102E-5,0
COSMO-SKYMED 4,2010-060A,2026-06-18T17:26:05.876160,14.82153315,.0001378,97.8882,353.3032,82.7885,277.3485,0,U,37216,999,84479,.23768E-4,.137E-5,0
O/OREOS (USA 219),2010-062C,2026-06-18T03:12:34.010208,14.93748266,.00125686,71.9713,78.1955,61.0005,299.2424,0,U,37224,999,11678,.17758614E-3,.1822E-4,0
RESOURCESAT-2,2011-015A,2026-06-18T15:17:53.621088,14.21606885,.0010245,98.7644,237.0693,250.8490,109.1579,0,U,37387,999,78638,.57062E-4,.81E-6,0
YOUTHSAT,2011-015B,2026-06-18T17:20:14.088192,14.25630785,.0014106,98.3682,143.7072,342.5283,191.2855,0,U,37388,999,78785,.72227E-4,.13E-5,0
APRIZESAT 6,2011-044F,2026-06-18T16:54:06.818112,14.76917857,.0044486,98.2362,80.2348,81.3364,335.6808,0,U,37793,999,79737,.92657E-4,.606E-5,0
JUGNU,2011-058B,2026-06-18T16:50:02.884992,14.13777162,.0018627,19.9619,299.2304,92.8225,295.0564,0,U,37839,999,75924,.66297E-4,.394E-5,0
SRMSAT,2011-058D,2026-06-18T08:54:29.813760,14.11575778,.0011756,19.9726,52.3001,216.7081,303.9733,0,U,37841,999,75798,.48168E-4,.354E-5,0
SUOMI NPP,2011-061A,2026-06-18T16:18:52.870176,14.19517654,.0001453,98.7953,110.5456,3.1761,356.9424,0,U,37849,999,75865,.47195E-4,.55E-6,0
YAOGAN-12,2011-066B,2026-06-18T16:59:13.048224,15.26617362,.0008882,97.1133,208.2050,210.9459,149.1258,0,U,37875,999,81227,.21853E-3,.5661E-4,0
